{"type": "FeatureCollection", "features": [ {"type": "Feature", "properties": {"norad_id": 66777, "name": "TRANSPORTER-15DR", "group": "last-30-days", "lat": 42.42730338628588, "lon": 61.99197196167279, "alt_km": 504.7820108049, "timestamp": "2025-12-23T05:02:10.750013+00:00", "meta": {"OBJECT_NAME": "TRANSPORTER-15DR", "OBJECT_ID": "2025-276DR", "EPOCH": "2025-12-22T20:56:34.075104", "MEAN_MOTION": 15.18915244, "ECCENTRICITY": 0.00034711, "INCLINATION": 97.4471, "RA_OF_ASC_NODE": 68.5261, "ARG_OF_PERICENTER": 112.1365, "MEAN_ANOMALY": 248.0238, "EPHEMERIS_TYPE": 0, "CLASSIFICATION_TYPE": "U", "NORAD_CAT_ID": 66777, "ELEMENT_SET_NO": 999, "REV_AT_EPOCH": 366, "BSTAR": 0.00064817445, "MEAN_MOTION_DOT": 0.00013478, "MEAN_MOTION_DDOT": 0}, "tle": {"line1": "1 66777U 25276DR  25356.87261661  .00013478  00000+0  64817-3 0  9994", "line2": "2 66777  97.4471  68.5261 0003471 112.1365 248.0238 15.18915244  3661"}}, "geometry": {"type": "Point", "coordinates": [61.99197196167279, 42.42730338628588]}}, {"type": "Feature", "properties": {"norad_id": 66778, "name": "TRANSPORTER-15DS", "group": "last-30-days", "lat": -65.3609717562103, "lon": -127.78392709343386, "alt_km": 525.1424348715864, "timestamp": "2025-12-23T05:02:10.750023+00:00", "meta": {"OBJECT_NAME": "TRANSPORTER-15DS", "OBJECT_ID": "2025-276DS", "EPOCH": "2025-12-18T19:26:21.991200", "MEAN_MOTION": 15.16535337, "ECCENTRICITY": 0.00032319, "INCLINATION": 97.4427, "RA_OF_ASC_NODE": 64.4586, "ARG_OF_PERICENTER": 41.3734, "MEAN_ANOMALY": 318.7744, "EPHEMERIS_TYPE": 0, "CLASSIFICATION_TYPE": "U", "NORAD_CAT_ID": 66778, "ELEMENT_SET_NO": 999, "REV_AT_EPOCH": 304, "BSTAR": 0.00025483693, "MEAN_MOTION_DOT": 4.904e-05, "MEAN_MOTION_DDOT": 0}, "tle": {"line1": "1 66778U 25276DS  25352.80997675  .00004904  00000+0  25484-3 0  9996", "line2": "2 66778  97.4427  64.4586 0003231  41.3734 318.7744 15.16535337  3043"}}, "geometry": {"type": "Point", "coordinates": [-127.78392709343386, -65.3609717562103]}}, {"type": "Feature", "properties": {"norad_id": 66791, "name": "STARLINK-35867", "group": "last-30-days", "lat": -42.880716517669086, "lon": 103.74063282973957, "alt_km": 416.6594298295222, "timestamp": "2025-12-23T05:02:10.750036+00:00", "meta": {"OBJECT_NAME": "STARLINK-35867", "OBJECT_ID": "2025-278A", "EPOCH": "2025-12-22T22:00:03.000096", "MEAN_MOTION": 15.51609069, "ECCENTRICITY": 0.00020595, "INCLINATION": 42.9991, "RA_OF_ASC_NODE": 190.716, "ARG_OF_PERICENTER": 260.3684, "MEAN_ANOMALY": 174.1826, "EPHEMERIS_TYPE": 0, "CLASSIFICATION_TYPE": "U", "NORAD_CAT_ID": 66791, "ELEMENT_SET_NO": 999, "REV_AT_EPOCH": 459, "BSTAR": -0.026481069, "MEAN_MOTION_DOT": -0.01441121, "MEAN_MOTION_DDOT": 0}, "tle": {"line1": "1 66791U 25278A   25356.91670139 -.01441121  00000+0 -26481-1 0  9997", "line2": "2 66791  42.9991 190.7160 0002059 260.3684 174.1826 15.51609069  4593"}}, "geometry": {"type": "Point", "coordinates": [103.74063282973957, -42.880716517669086]}}, {"type": "Feature", "properties": {"norad_id": 66792, "name": "STARLINK-35990", "group": "last-30-days", "lat": -42.74410588535958, "lon": 106.33014063523726, "alt_km": 416.8703901612107, "timestamp": "2025-12-23T05:02:10.750046+00:00", "meta": {"OBJECT_NAME": "STARLINK-35990", "OBJECT_ID": "2025-278B", "EPOCH": "2025-12-22T22:00:03.000096", "MEAN_MOTION": 15.51585417, "ECCENTRICITY": 0.00017766, "INCLINATION": 42.9993, "RA_OF_ASC_NODE": 190.7116, "ARG_OF_PERICENTER": 255.2788, "MEAN_ANOMALY": 181.1886, "EPHEMERIS_TYPE": 0, "CLASSIFICATION_TYPE": "U", "NORAD_CAT_ID": 66792, "ELEMENT_SET_NO": 999, "REV_AT_EPOCH": 459, "BSTAR": -0.025564009, "MEAN_MOTION_DOT": -0.01395104, "MEAN_MOTION_DDOT": 0}, "tle": {"line1": "1 66792U 25278B   25356.91670139 -.01395104  00000+0 -25564-1 0  9998", "line2": "2 66792  42.9993 190.7116 0001776 255.2788 181.1886 15.51585417  4594"}}, "geometry": {"type": "Point", "coordinates": [106.33014063523726, -42.74410588535958]}}, {"type": "Feature", "properties": {"norad_id": 66793, "name": "STARLINK-36051", "group": "last-30-days", "lat": -42.293801873039385, "lon": 111.4857131047509, "alt_km": 416.97192682545756, "timestamp": "2025-12-23T05:02:10.750056+00:00", "meta": {"OBJECT_NAME": "STARLINK-36051", "OBJECT_ID": "2025-278C", "EPOCH": "2025-12-22T22:00:03.000096", "MEAN_MOTION": 15.51591567, "ECCENTRICITY": 0.00016821, "INCLINATION": 42.9992, "RA_OF_ASC_NODE": 190.7017, "ARG_OF_PERICENTER": 253.8163, "MEAN_ANOMALY": 186.4877, "EPHEMERIS_TYPE": 0, "CLASSIFICATION_TYPE": "U", "NORAD_CAT_ID": 66793, "ELEMENT_SET_NO": 999, "REV_AT_EPOCH": 449, "BSTAR": -0.025853129, "MEAN_MOTION_DOT": -0.01409502, "MEAN_MOTION_DDOT": 0}, "tle": {"line1": "1 66793U 25278C   25356.91670139 -.01409502  00000+0 -25853-1 0  9998", "line2": "2 66793  42.9992 190.7017 0001682 253.8163 186.4877 15.51591567  4491"}}, "geometry": {"type": "Point", "coordinates": [111.4857131047509, -42.293801873039385]}}, {"type": "Feature", "properties": {"norad_id": 66794, "name": "STARLINK-36062", "group": "last-30-days", "lat": -42.54697030181625, "lon": 108.92880660024453, "alt_km": 416.62623440308016, "timestamp": "2025-12-23T05:02:10.750066+00:00", "meta": {"OBJECT_NAME": "STARLINK-36062", "OBJECT_ID": "2025-278D", "EPOCH": "2025-12-22T22:00:03.000096", "MEAN_MOTION": 15.51611894, "ECCENTRICITY": 0.00021422, "INCLINATION": 42.9993, "RA_OF_ASC_NODE": 190.7063, "ARG_OF_PERICENTER": 260.3821, "MEAN_ANOMALY": 178.0068, "EPHEMERIS_TYPE": 0, "CLASSIFICATION_TYPE": "U", "NORAD_CAT_ID": 66794, "ELEMENT_SET_NO": 999, "REV_AT_EPOCH": 459, "BSTAR": -0.026672552, "MEAN_MOTION_DOT": -0.01450608, "MEAN_MOTION_DDOT": 0}, "tle": {"line1": "1 66794U 25278D   25356.91670139 -.01450608  00000+0 -26673-1 0  9993", "line2": "2 66794  42.9993 190.7063 0002142 260.3821 178.0068 15.51611894  4596"}}, "geometry": {"type": "Point", "coordinates": [108.92880660024453, -42.54697030181625]}}, {"type": "Feature", "properties": {"norad_id": 66795, "name": "STARLINK-36047", "group": "last-30-days", "lat": -41.98351647671774, "lon": 114.0269144145545, "alt_km": 416.92258954570207, "timestamp": "2025-12-23T05:02:10.750076+00:00", "meta": {"OBJECT_NAME": "STARLINK-36047", "OBJECT_ID": "2025-278E", "EPOCH": "2025-12-22T22:00:03.000096", "MEAN_MOTION": 15.51586091, "ECCENTRICITY": 0.00017406, "INCLINATION": 42.9994, "RA_OF_ASC_NODE": 190.6974, "ARG_OF_PERICENTER": 255.1577, "MEAN_ANOMALY": 187.0638, "EPHEMERIS_TYPE": 0, "CLASSIFICATION_TYPE": "U", "NORAD_CAT_ID": 66795, "ELEMENT_SET_NO": 999, "REV_AT_EPOCH": 449, "BSTAR": -0.025654665, "MEAN_MOTION_DOT": -0.01399562, "MEAN_MOTION_DDOT": 0}, "tle": {"line1": "1 66795U 25278E   25356.91670139 -.01399562  00000+0 -25655-1 0  9994", "line2": "2 66795  42.9994 190.6974 0001740 255.1577 187.0638 15.51586091  4493"}}, "geometry": {"type": "Point", "coordinates": [114.0269144145545, -41.98351647671774]}}, {"type": "Feature", "properties": {"norad_id": 66796, "name": "STARLINK-35964", "group": "last-30-days", "lat": 33.03604887432144, "lon": -128.893200058294, "alt_km": 322.85581991453273, "timestamp": "2025-12-23T05:02:10.750088+00:00", "meta": {"OBJECT_NAME": "STARLINK-35964", "OBJECT_ID": "2025-278F", "EPOCH": "2025-12-22T19:42:56.290176", "MEAN_MOTION": 15.8084634, "ECCENTRICITY": 0.00016834, "INCLINATION": 42.9911, "RA_OF_ASC_NODE": 189.2104, "ARG_OF_PERICENTER": 273.7622, "MEAN_ANOMALY": 86.3056, "EPHEMERIS_TYPE": 0, "CLASSIFICATION_TYPE": "U", "NORAD_CAT_ID": 66796, "ELEMENT_SET_NO": 999, "REV_AT_EPOCH": 344, "BSTAR": 0.0016189355, "MEAN_MOTION_DOT": 0.00335196, "MEAN_MOTION_DDOT": 0}, "tle": {"line1": "1 66796U 25278F   25356.82148484  .00335196  00000+0  16189-2 0  9991", "line2": "2 66796  42.9911 189.2104 0001683 273.7622  86.3056 15.80846340  3442"}}, "geometry": {"type": "Point", "coordinates": [-128.893200058294, 33.03604887432144]}}, {"type": "Feature", "properties": {"norad_id": 66797, "name": "STARLINK-36099", "group": "last-30-days", "lat": -41.19704834526398, "lon": 119.02368236982441, "alt_km": 416.8497498137658, "timestamp": "2025-12-23T05:02:10.750098+00:00", "meta": {"OBJECT_NAME": "STARLINK-36099", "OBJECT_ID": "2025-278G", "EPOCH": "2025-12-22T22:00:03.000096", "MEAN_MOTION": 15.51583743, "ECCENTRICITY": 0.0001804, "INCLINATION": 42.9994, "RA_OF_ASC_NODE": 190.6882, "ARG_OF_PERICENTER": 257.7721, "MEAN_ANOMALY": 188.2792, "EPHEMERIS_TYPE": 0, "CLASSIFICATION_TYPE": "U", "NORAD_CAT_ID": 66797, "ELEMENT_SET_NO": 999, "REV_AT_EPOCH": 465, "BSTAR": -0.025486593, "MEAN_MOTION_DOT": -0.01391243, "MEAN_MOTION_DDOT": 0}, "tle": {"line1": "1 66797U 25278G   25356.91670139 -.01391243  00000+0 -25487-1 0  9997", "line2": "2 66797  42.9994 190.6882 0001804 257.7721 188.2792 15.51583743  4656"}}, "geometry": {"type": "Point", "coordinates": [119.02368236982441, -41.19704834526398]}}, {"type": "Feature", "properties": {"norad_id": 66798, "name": "STARLINK-36041", "group": "last-30-days", "lat": -40.720275238572384, "lon": 121.48790605653814, "alt_km": 416.6573764166551, "timestamp": "2025-12-23T05:02:10.750111+00:00", "meta": {"OBJECT_NAME": "STARLINK-36041", "OBJECT_ID": "2025-278H", "EPOCH": "2025-12-22T22:00:03.000096", "MEAN_MOTION": 15.51610337, "ECCENTRICITY": 0.00020776, "INCLINATION": 42.9992, "RA_OF_ASC_NODE": 190.682, "ARG_OF_PERICENTER": 262.1662, "MEAN_ANOMALY": 185.8053, "EPHEMERIS_TYPE": 0, "CLASSIFICATION_TYPE": "U", "NORAD_CAT_ID": 66798, "ELEMENT_SET_NO": 999, "REV_AT_EPOCH": 443, "BSTAR": -0.026560476, "MEAN_MOTION_DOT": -0.01445053, "MEAN_MOTION_DDOT": 0}, "tle": {"line1": "1 66798U 25278H   25356.91670139 -.01445053  00000+0 -26560-1 0  9990", "line2": "2 66798  42.9992 190.6820 0002077 262.1662 185.8053 15.51610337  4433"}}, "geometry": {"type": "Point", "coordinates": [121.48790605653814, -40.720275238572384]}}]}